CCSDS_OMM_VERS,COMMENT,CREATION_DATE,ORIGINATOR,OBJECT_NAME,OBJECT_ID,CENTER_NAME,REF_FRAME,TIME_SYSTEM,MEAN_ELEMENT_THEORY,EPOCH,MEAN_MOTION,ECCENTRICITY,INCLINATION,RA_OF_ASC_NODE,ARG_OF_PERICENTER,MEAN_ANOMALY,EPHEMERIS_TYPE,CLASSIFICATION_TYPE,NORAD_CAT_ID,ELEMENT_SET_NO,REV_AT_EPOCH,BSTAR,MEAN_MOTION_DOT,MEAN_MOTION_DDOT,SEMIMAJOR_AXIS,PERIOD,APOAPSIS,PERIAPSIS,OBJECT_TYPE,RCS_SIZE,COUNTRY_CODE,LAUNCH_DATE,SITE,DECAY_DATE,FILE,GP_ID,TLE_LINE0,TLE_LINE1,TLE_LINE2
2,GENERATED VIA SPACE-TRACK.ORG API,2019-07-28T03:41:22,18 SPCS,BREEZE-M R/B,2000-029B,EARTH,TEME,UTC,SGP4,2019-07-27T14:56:21.081408,1.00373541,0.0268221,12.2168,24.8139,274.2484,83.298,0,U,26373,999,7017,0.0,5.7e-07,0,42136.23,1434.641,36888.277,34627.912,ROCKET BODY,LARGE,CIS,2000-06-06,TTMTR,,2519408,135797687,0 BREEZE-M R/B,1 26373U 00029B   19208.62246622 +.00000057 +00000-0 +00000-0 0  9994,2 26373 012.2168 024.8139 0268221 274.2484 083.2980 01.00373541070171
2,GENERATED VIA SPACE-TRACK.ORG API,2019-07-29T03:53:21,18 SPCS,BREEZE-M R/B,2000-029B,EARTH,TEME,UTC,SGP4,2019-07-28T14:41:42.586080,1.00373979,0.0268201,12.2174,24.8056,274.2705,80.9603,0,U,26373,999,7018,0.0,5.6e-07,0,42136.107,1434.634,36888.067,34627.877,ROCKET BODY,LARGE,CIS,2000-06-06,TTMTR,,2519729,135843265,0 BREEZE-M R/B,1 26373U 00029B   19209.61229845 +.00000056 +00000-0 +00000-0 0  9991,2 26373 012.2174 024.8056 0268201 274.2705 080.9603 01.00373979070182
2,GENERATED VIA SPACE-TRACK.ORG API,2019-07-30T04:47:47,18 SPCS,BREEZE-M R/B,2000-029B,EARTH,TEME,UTC,SGP4,2019-07-29T14:02:42.695232,1.00374408,0.0268187,12.218,24.7973,274.2906,72.5141,0,U,26373,999,7019,0.0,5.3e-07,0,42135.987,1434.628,36887.884,34627.82,ROCKET BODY,LARGE,CIS,2000-06-06,TTMTR,,2520044,135907126,0 BREEZE-M R/B,1 26373U 00029B   19210.58521638 +.00000053 +00000-0 +00000-0 0  9991,2 26373 012.2180 024.7973 0268187 274.2906 072.5141 01.00374408070195
2,GENERATED VIA SPACE-TRACK.ORG API,2019-07-30T06:20:14,18 SPCS,BREEZE-M R/B,2000-029B,EARTH,TEME,UTC,SGP4,2019-07-30T03:12:52.872192,1.00374645,0.0268184,12.2184,24.7926,274.3006,270.7936,0,U,26373,999,7019,0.0,5.1e-07,0,42135.921,1434.625,36887.804,34627.768,ROCKET BODY,LARGE,CIS,2000-06-06,TTMTR,,2520064,135919321,0 BREEZE-M R/B,1 26373U 00029B   19211.13394528  .00000051  00000-0  00000+0 0  9996,2 26373  12.2184  24.7926 0268184 274.3006 270.7936  1.00374645 70193
2,GENERATED VIA SPACE-TRACK.ORG API,2019-07-31T04:10:45,18 SPCS,BREEZE-M R/B,2000-029B,EARTH,TEME,UTC,SGP4,2019-07-30T15:18:13.493952,1.00374864,0.0268174,12.2187,24.7883,274.3116,92.8048,0,U,26373,999,7021,0.0,4.9e-07,0,42135.859,1434.622,36887.699,34627.75,ROCKET BODY,LARGE,CIS,2000-06-06,TTMTR,,2520311,135970286,0 BREEZE-M R/B,1 26373U 00029B   19211.63765618 +.00000049 +00000-0 +00000-0 0  9991,2 26373 012.2187 024.7883 0268174 274.3116 092.8048 01.00374864070212
2,GENERATED VIA SPACE-TRACK.ORG API,2019-08-01T04:59:31,18 SPCS,BREEZE-M R/B,2000-029B,EARTH,TEME,UTC,SGP4,2019-07-31T13:52:42.462336,1.00375264,0.0268172,12.2193,24.7803,274.3306,72.6887,0,U,26373,999,7021,0.0,4.4e-07,0,42135.747,1434.616,36887.575,34627.65,ROCKET BODY,LARGE,CIS,2000-06-06,TTMTR,,2520806,136056947,0 BREEZE-M R/B,1 26373U 00029B   19212.57826924 +.00000044 +00000-0 +00000-0 0  9998,2 26373 012.2193 024.7803 0268172 274.3306 072.6887 01.00375264070212
2,GENERATED VIA SPACE-TRACK.ORG API,2019-08-01T11:20:13,18 SPCS,BREEZE-M R/B,2000-029B,EARTH,TEME,UTC,SGP4,2019-08-01T08:15:15.350688,1.00375592,0.0268177,12.2198,24.7738,274.3448,349.3566,0,U,26373,999,7022,0.0,3.9e-07,0,42135.656,1434.611,36887.502,34627.539,ROCKET BODY,LARGE,CIS,2000-06-06,TTMTR,,2520925,136090359,0 BREEZE-M R/B,1 26373U 00029B   19213.34392767  .00000039  00000-0  00000+0 0  9990,2 26373  12.2198  24.7738 0268177 274.3448 349.3566  1.00375592 70229
2,GENERATED VIA SPACE-TRACK.ORG API,2019-08-03T04:31:45,18 SPCS,BREEZE-M R/B,2000-029B,EARTH,TEME,UTC,SGP4,2019-08-02T08:18:44.945856,1.00376019,0.026818,12.2205,24.7652,274.3654,351.579,0,U,26373,999,7023,0.0,3.3e-07,0,42135.536,1434.605,36887.392,34627.41,ROCKET BODY,LARGE,CIS,2000-06-06,TTMTR,,2521789,136172582,0 BREEZE-M R/B,1 26373U 00029B   19214.34635354 +.00000033 +00000-0 +00000-0 0  9998,2 26373 012.2205 024.7652 0268180 274.3654 351.5790 01.00376019070236
2,GENERATED VIA SPACE-TRACK.ORG API,2019-08-04T03:36:56,18 SPCS,BREEZE-M R/B,2000-029B,EARTH,TEME,UTC,SGP4,2019-08-03T03:42:11.049120,1.00376357,0.0268183,12.221,24.7584,274.3816,283.5265,0,U,26373,999,7024,0.0,2.7e-07,0,42135.442,1434.6,36887.308,34627.306,ROCKET BODY,LARGE,CIS,2000-06-06,TTMTR,,2522401,136204696,0 BREEZE-M R/B,1 26373U 00029B   19215.15429455 +.00000027 +00000-0 +00000-0 0  9994,2 26373 012.2210 024.7584 0268183 274.3816 283.5265 01.00376357070246
2,GENERATED VIA SPACE-TRACK.ORG API,2019-08-04T06:20:14,18 SPCS,BREEZE-M R/B,2000-029B,EARTH,TEME,UTC,SGP4,2019-08-04T02:06:12.933216,1.0037675,0.0268191,12.2216,24.7504,274.4013,260.7923,0,U,26373,999,7025,0.0,2e-07,0,42135.332,1434.595,36887.228,34627.165,ROCKET BODY,LARGE,CIS,2000-06-06,TTMTR,,2522427,136216880,0 BREEZE-M R/B,1 26373U 00029B   19216.08764969  .00000020  00000-0  00000+0 0  9991,2 26373  12.2216  24.7504 0268191 274.4013 260.7923  1.00376750 70259
2,GENERATED VIA SPACE-TRACK.ORG API,2019-08-05T04:00:35,18 SPCS,BREEZE-M R/B,2000-029B,EARTH,TEME,UTC,SGP4,2019-08-04T14:16:42.551616,1.00376967,0.0268199,12.2219,24.7462,274.4149,84.0974,0,U,26373,999,7026,0.0,1.7e-07,0,42135.271,1434.592,36887.2,34627.072,ROCKET BODY,LARGE,CIS,2000-06-06,TTMTR,,2522675,136249508,0 BREEZE-M R/B,1 26373U 00029B   19216.59493694 +.00000017 +00000-0 +00000-0 0  9998,2 26373 012.2219 024.7462 0268199 274.4149 084.0974 01.00376967070267
2,GENERATED VIA SPACE-TRACK.ORG API,2019-08-06T04:08:09,18 SPCS,BREEZE-M R/B,2000-029B,EARTH,TEME,UTC,SGP4,2019-08-05T13:31:50.266272,1.00377368,0.0268213,12.2225,24.738,274.4373,74.1856,0,U,26373,999,7026,0.0,1e-07,0,42135.159,1434.586,36887.143,34626.904,ROCKET BODY,LARGE,CIS,2000-06-06,TTMTR,,2523692,136290357,0 BREEZE-M R/B,1 26373U 00029B   19217.56377623 +.00000010 +00000-0 +00000-0 0  9992,2 26373 012.2225 024.7380 0268213 274.4373 074.1856 01.00377368070264
2,GENERATED VIA SPACE-TRACK.ORG API,2019-08-06T06:20:15,18 SPCS,BREEZE-M R/B,2000-029B,EARTH,TEME,UTC,SGP4,2019-08-06T02:20:24.776736,1.00377586,0.026822,12.2229,24.7335,274.4485,267.0505,0,U,26373,999,7027,0.0,6e-08,0,42135.098,1434.583,36887.11,34626.815,ROCKET BODY,LARGE,CIS,2000-06-06,TTMTR,,2523722,136313918,0 BREEZE-M R/B,1 26373U 00029B   19218.09750899  .00000006  00000-0  00000+0 0  9995,2 26373  12.2229  24.7335 0268220 274.4485 267.0505  1.00377586 70277
2,GENERATED VIA SPACE-TRACK.ORG API,2019-08-08T04:17:00,18 SPCS,BREEZE-M R/B,2000-029B,EARTH,TEME,UTC,SGP4,2019-08-07T14:33:14.340672,1.00378197,0.0268243,12.2239,24.7209,274.4888,92.2891,0,U,26373,999,7029,0.0,-3e-08,0,42134.927,1434.574,36887.032,34626.552,ROCKET BODY,LARGE,CIS,2000-06-06,TTMTR,,2532521,136486478,0 BREEZE-M R/B,1 26373U 00029B   19219.60641598 -.00000003 +00000-0 +00000-0 0  9997,2 26373 012.2239 024.7209 0268243 274.4888 092.2891 01.00378197070297
2,GENERATED VIA SPACE-TRACK.ORG API,2019-08-08T06:20:18,18 SPCS,BREEZE-M R/B,2000-029B,EARTH,TEME,UTC,SGP4,2019-08-08T02:35:27.578976,1.0037839,0.026825,12.2242,24.7167,274.4997,273.5226,0,U,26373,999,7029,0.0,-6e-08,0,42134.873,1434.571,36887.006,34626.47,ROCKET BODY,LARGE,CIS,2000-06-06,TTMTR,,2532551,136498812,0 BREEZE-M R/B,1 26373U 00029B   19220.10795809 -.00000006  00000-0  00000+0 0  9991,2 26373  12.2242  24.7167 0268250 274.4997 273.5226  1.00378390 70294
2,GENERATED VIA SPACE-TRACK.ORG API,2019-08-09T04:16:18,18 SPCS,BREEZE-M R/B,2000-029B,EARTH,TEME,UTC,SGP4,2019-08-08T14:00:42.842880,1.00378578,0.0268257,12.2245,24.7128,274.5135,85.4769,0,U,26373,999,7030,0.0,-8e-08,0,42134.82,1434.569,36886.981,34626.389,ROCKET BODY,LARGE,CIS,2000-06-06,TTMTR,,2533199,136566252,0 BREEZE-M R/B,1 26373U 00029B   19220.58382920 -.00000008 +00000-0 +00000-0 0  9992,2 26373 012.2245 024.7128 0268257 274.5135 085.4769 01.00378578070308
2,GENERATED VIA SPACE-TRACK.ORG API,2019-08-10T05:00:38,18 SPCS,BREEZE-M R/B,2000-029B,EARTH,TEME,UTC,SGP4,2019-08-09T14:13:16.440096,1.0037898,0.0268267,12.2252,24.7044,274.5414,89.9775,0,U,26373,999,7031,0.0,-1.2e-07,0,42134.708,1434.563,36886.908,34626.237,ROCKET BODY,LARGE,CIS,2000-06-06,TTMTR,,2533935,136619807,0 BREEZE-M R/B,1 26373U 00029B   19221.59255139 -.00000012 +00000-0 +00000-0 0  9990,2 26373 012.2252 024.7044 0268267 274.5414 089.9775 01.00378980070318
2,GENERATED VIA SPACE-TRACK.ORG API,2019-08-10T14:20:15,18 SPCS,BREEZE-M R/B,2000-029B,EARTH,TEME,UTC,SGP4,2019-08-10T12:24:29.492928,1.00379345,0.0268271,12.2258,24.6967,274.5676,64.0295,0,U,26373,999,7031,0.0,-1.5e-07,0,42134.605,1434.558,36886.82,34626.121,ROCKET BODY,LARGE,CIS,2000-06-06,TTMTR,,2534184,136637534,0 BREEZE-M R/B,1 26373U 00029B   19222.51700802 -.00000015  00000-0  00000+0 0  9997,2 26373  12.2258  24.6967 0268271 274.5676  64.0295  1.00379345 70319
2,GENERATED VIA SPACE-TRACK.ORG API,2019-08-11T03:47:42,18 SPCS,BREEZE-M R/B,2000-029B,EARTH,TEME,UTC,SGP4,2019-08-10T13:41:42.902880,1.00379363,0.0268271,12.2258,24.6963,274.5698,83.407,0,U,26373,999,7032,0.0,-1.5e-07,0,42134.6,1434.557,36886.815,34626.116,ROCKET BODY,LARGE,CIS,2000-06-06,TTMTR,,2534570,136672294,0 BREEZE-M R/B,1 26373U 00029B   19222.57063545 -.00000015 +00000-0 +00000-0 0  9990,2 26373 012.2258 024.6963 0268271 274.5698 083.4070 01.00379363070326
2,GENERATED VIA SPACE-TRACK.ORG API,2019-08-12T22:30:18,18 SPCS,BREEZE-M R/B,2000-029B,EARTH,TEME,UTC,SGP4,2019-08-12T13:26:54.778272,1.00380141,0.0268275,12.2272,24.6798,274.6237,82.3981,0,U,26373,999,7033,0.0,-1.7e-07,0,42134.383,1434.546,36886.608,34625.888,ROCKET BODY,LARGE,CIS,2000-06-06,TTMTR,,2535135,136787617,0 BREEZE-M R/B,1 26373U 00029B   19224.56035623 -.00000017  00000-0  00000+0 0  9998,2 26373  12.2272  24.6798 0268275 274.6237  82.3981  1.00380141 70338
